{
  "type": "FeatureCollection",
  "features": [
    {
      "type": "Feature",
      "properties": {
        "norad_id": 40730,
        "name": "GPS BIIF-10 (PRN 08)",
        "group": "gps-ops",
        "lat": -31.95083374385993,
        "lon": -112.49473177025315,
        "alt_km": 20071.13112593424,
        "timestamp": "2025-12-24T03:53:29.906314+00:00",
        "meta_object_name": "GPS BIIF-10 (PRN 08)",
        "meta_object_id": "2015-033A",
        "meta_epoch": "2025-12-21T17:23:51.616608",
        "meta_mean_motion": 2.00565211,
        "meta_eccentricity": 0.01114778,
        "meta_inclination": 54.1229,
        "meta_ra_of_asc_node": 274.4032,
        "meta_arg_of_pericenter": 27.0282,
        "meta_mean_anomaly": 333.5929,
        "meta_ephemeris_type": 0,
        "meta_classification_type": "U",
        "meta_norad_cat_id": 40730,
        "meta_element_set_no": 999,
        "meta_rev_at_epoch": 7643,
        "meta_bstar": 0,
        "meta_mean_motion_dot": -1.3e-07,
        "meta_mean_motion_ddot": 0,
        "tle_line1": "1 40730U 15033A   25355.72490297 -.00000013  00000+0  00000+0 0  9999",
        "tle_line2": "2 40730  54.1229 274.4032 0111477  27.0282 333.5929  2.00565211 76439"
      },
      "geometry": {
        "type": "Point",
        "coordinates": [
          -112.49473177025315,
          -31.95083374385993
        ]
      }
    },
    {
      "type": "Feature",
      "properties": {
        "norad_id": 41019,
        "name": "GPS BIIF-11 (PRN 10)",
        "group": "gps-ops",
        "lat": -56.20255669661406,
        "lon": -39.91811084511843,
        "alt_km": 19983.099604994946,
        "timestamp": "2025-12-24T03:53:29.906325+00:00",
        "meta_object_name": "GPS BIIF-11 (PRN 10)",
        "meta_object_id": "2015-062A",
        "meta_epoch": "2025-12-23T06:43:12.895104",
        "meta_mean_motion": 2.00567181,
        "meta_eccentricity": 0.0111075,
        "meta_inclination": 56.8398,
        "meta_ra_of_asc_node": 37.5947,
        "meta_arg_of_pericenter": 230.2304,
        "meta_mean_anomaly": 128.8517,
        "meta_ephemeris_type": 0,
        "meta_classification_type": "U",
        "meta_norad_cat_id": 41019,
        "meta_element_set_no": 999,
        "meta_rev_at_epoch": 7430,
        "meta_bstar": 0,
        "meta_mean_motion_dot": -4.8e-07,
        "meta_mean_motion_ddot": 0,
        "tle_line1": "1 41019U 15062A   25357.28001036 -.00000048  00000+0  00000+0 0  9992",
        "tle_line2": "2 41019  56.8398  37.5947 0111075 230.2304 128.8517  2.00567181 74306"
      },
      "geometry": {
        "type": "Point",
        "coordinates": [
          -39.91811084511843,
          -56.20255669661406
        ]
      }
    },
    {
      "type": "Feature",
      "properties": {
        "norad_id": 41328,
        "name": "GPS BIIF-12 (PRN 32)",
        "group": "gps-ops",
        "lat": -28.76718828002549,
        "lon": -61.36553076001229,
        "alt_km": 19968.60460873383,
        "timestamp": "2025-12-24T03:53:29.906351+00:00",
        "meta_object_name": "GPS BIIF-12 (PRN 32)",
        "meta_object_id": "2016-007A",
        "meta_epoch": "2025-12-21T20:48:30.606624",
        "meta_mean_motion": 2.00560245,
        "meta_eccentricity": 0.0092635,
        "meta_inclination": 55.4111,
        "meta_ra_of_asc_node": 96.4948,
        "meta_arg_of_pericenter": 243.8067,
        "meta_mean_anomaly": 115.2397,
        "meta_ephemeris_type": 0,
        "meta_classification_type": "U",
        "meta_norad_cat_id": 41328,
        "meta_element_set_no": 999,
        "meta_rev_at_epoch": 7228,
        "meta_bstar": 0,
        "meta_mean_motion_dot": -3e-08,
        "meta_mean_motion_ddot": 0,
        "tle_line1": "1 41328U 16007A   25355.86702091 -.00000003  00000+0  00000+0 0  9997",
        "tle_line2": "2 41328  55.4111  96.4948 0092635 243.8067 115.2397  2.00560245 72283"
      },
      "geometry": {
        "type": "Point",
        "coordinates": [
          -61.36553076001229,
          -28.76718828002549
        ]
      }
    },
    {
      "type": "Feature",
      "properties": {
        "norad_id": 43873,
        "name": "GPS BIII-1  (PRN 04)",
        "group": "gps-ops",
        "lat": 50.754811022802976,
        "lon": -137.869967794816,
        "alt_km": 20168.576553758703,
        "timestamp": "2025-12-24T03:53:29.906365+00:00",
        "meta_object_name": "GPS BIII-1  (PRN 04)",
        "meta_object_id": "2018-109A",
        "meta_epoch": "2025-12-23T17:59:08.698272",
        "meta_mean_motion": 2.00553954,
        "meta_eccentricity": 0.0037615,
        "meta_inclination": 55.5727,
        "meta_ra_of_asc_node": 99.1128,
        "meta_arg_of_pericenter": 195.5361,
        "meta_mean_anomaly": 337.0288,
        "meta_ephemeris_type": 0,
        "meta_classification_type": "U",
        "meta_norad_cat_id": 43873,
        "meta_element_set_no": 999,
        "meta_rev_at_epoch": 5155,
        "meta_bstar": 0,
        "meta_mean_motion_dot": 1.4e-07,
        "meta_mean_motion_ddot": 0,
        "tle_line1": "1 43873U 18109A   25357.74940623  .00000014  00000+0  00000+0 0  9994",
        "tle_line2": "2 43873  55.5727  99.1128 0037615 195.5361 337.0288  2.00553954 51550"
      },
      "geometry": {
        "type": "Point",
        "coordinates": [
          -137.869967794816,
          50.754811022802976
        ]
      }
    },
    {
      "type": "Feature",
      "properties": {
        "norad_id": 44506,
        "name": "GPS BIII-2  (PRN 18)",
        "group": "gps-ops",
        "lat": 6.718880427642474,
        "lon": -17.306161711823457,
        "alt_km": 20331.86429261405,
        "timestamp": "2025-12-24T03:53:29.906376+00:00",
        "meta_object_name": "GPS BIII-2  (PRN 18)",
        "meta_object_id": "2019-056A",
        "meta_epoch": "2025-12-23T03:47:40.057728",
        "meta_mean_motion": 2.00566586,
        "meta_eccentricity": 0.0057745,
        "meta_inclination": 55.7177,
        "meta_ra_of_asc_node": 338.1397,
        "meta_arg_of_pericenter": 198.5953,
        "meta_mean_anomaly": 164.4501,
        "meta_ephemeris_type": 0,
        "meta_classification_type": "U",
        "meta_norad_cat_id": 44506,
        "meta_element_set_no": 999,
        "meta_rev_at_epoch": 4654,
        "meta_bstar": 0,
        "meta_mean_motion_dot": -6.4e-07,
        "meta_mean_motion_ddot": 0,
        "tle_line1": "1 44506U 19056A   25357.15810252 -.00000064  00000+0  00000+0 0  9995",
        "tle_line2": "2 44506  55.7177 338.1397 0057745 198.5953 164.4501  2.00566586 46543"
      },
      "geometry": {
        "type": "Point",
        "coordinates": [
          -17.306161711823457,
          6.718880427642474
        ]
      }
    },
    {
      "type": "Feature",
      "properties": {
        "norad_id": 45854,
        "name": "GPS BIII-3  (PRN 23)",
        "group": "gps-ops",
        "lat": -37.964298188601525,
        "lon": 4.726048845929072,
        "alt_km": 20237.66177133727,
        "timestamp": "2025-12-24T03:53:29.906387+00:00",
        "meta_object_name": "GPS BIII-3  (PRN 23)",
        "meta_object_id": "2020-041A",
        "meta_epoch": "2025-12-23T05:38:15.042912",
        "meta_mean_motion": 2.00561767,
        "meta_eccentricity": 0.00606523,
        "meta_inclination": 56.5539,
        "meta_ra_of_asc_node": 35.7774,
        "meta_arg_of_pericenter": 203.7074,
        "meta_mean_anomaly": 158.6734,
        "meta_ephemeris_type": 0,
        "meta_classification_type": "U",
        "meta_norad_cat_id": 45854,
        "meta_element_set_no": 999,
        "meta_rev_at_epoch": 4051,
        "meta_bstar": 0,
        "meta_mean_motion_dot": -5e-07,
        "meta_mean_motion_ddot": 0,
        "tle_line1": "1 45854U 20041A   25357.23489633 -.00000050  00000+0  00000+0 0  9997",
        "tle_line2": "2 45854  56.5539  35.7774 0060652 203.7074 158.6734  2.00561767 40514"
      },
      "geometry": {
        "type": "Point",
        "coordinates": [
          4.726048845929072,
          -37.964298188601525
        ]
      }
    },
    {
      "type": "Feature",
      "properties": {
        "norad_id": 46826,
        "name": "GPS BIII-4  (PRN 14)",
        "group": "gps-ops",
        "lat": -51.76016312171326,
        "lon": 150.6606573504578,
        "alt_km": 20157.181557094635,
        "timestamp": "2025-12-24T03:53:29.906399+00:00",
        "meta_object_name": "GPS BIII-4  (PRN 14)",
        "meta_object_id": "2020-078A",
        "meta_epoch": "2025-12-16T01:06:13.902336",
        "meta_mean_motion": 2.00566891,
        "meta_eccentricity": 0.0064754,
        "meta_inclination": 54.0144,
        "meta_ra_of_asc_node": 218.2068,
        "meta_arg_of_pericenter": 203.3802,
        "meta_mean_anomaly": 339.3962,
        "meta_ephemeris_type": 0,
        "meta_classification_type": "U",
        "meta_norad_cat_id": 46826,
        "meta_element_set_no": 999,
        "meta_rev_at_epoch": 3783,
        "meta_bstar": 0,
        "meta_mean_motion_dot": 6.7e-07,
        "meta_mean_motion_ddot": 0,
        "tle_line1": "1 46826U 20078A   25350.04599424  .00000067  00000+0  00000+0 0  9996",
        "tle_line2": "2 46826  54.0144 218.2068 0064754 203.3802 339.3962  2.00566891 37830"
      },
      "geometry": {
        "type": "Point",
        "coordinates": [
          150.6606573504578,
          -51.76016312171326
        ]
      }
    }
  ]
}